{"type": "FeatureCollection", "features": [ {"type": "Feature", "properties": {"norad_id": 34634, "name": "COSMOS 2251 DEB", "group": "cosmos-2251-debris", "lat": -1.8641687692727353, "lon": 38.840698423095986, "alt_km": 737.0910129415834, "timestamp": "2025-12-10T09:57:45.092704+00:00", "meta": {"OBJECT_NAME": "COSMOS 2251 DEB", "OBJECT_ID": "1993-036XF", "EPOCH": "2025-12-10T03:30:40.002048", "MEAN_MOTION": 14.55646334, "ECCENTRICITY": 0.0044301, "INCLINATION": 74.0525, "RA_OF_ASC_NODE": 39.8826, "ARG_OF_PERICENTER": 148.0343, "MEAN_ANOMALY": 242.3338, "EPHEMERIS_TYPE": 0, "CLASSIFICATION_TYPE": "U", "NORAD_CAT_ID": 34634, "ELEMENT_SET_NO": 999, "REV_AT_EPOCH": 88744, "BSTAR": 0.00048364, "MEAN_MOTION_DOT": 2.111e-05, "MEAN_MOTION_DDOT": 0}, "tle": {"line1": "1 34634U 93036XF  25344.14629632  .00002111  00000+0  48364-3 0  9994", "line2": "2 34634  74.0525  39.8826 0044301 148.0343 242.3338 14.55646334887443"}}, "geometry": {"type": "Point", "coordinates": [38.840698423095986, -1.8641687692727353]}}, {"type": "Feature", "properties": {"norad_id": 34635, "name": "COSMOS 2251 DEB", "group": "cosmos-2251-debris", "lat": 60.80521703420492, "lon": -135.58877700382996, "alt_km": 642.9548846765992, "timestamp": "2025-12-10T09:57:45.092715+00:00", "meta": {"OBJECT_NAME": "COSMOS 2251 DEB", "OBJECT_ID": "1993-036XG", "EPOCH": "2025-12-10T01:32:53.473056", "MEAN_MOTION": 14.68204254, "ECCENTRICITY": 0.0028788, "INCLINATION": 74.0454, "RA_OF_ASC_NODE": 75.8846, "ARG_OF_PERICENTER": 145.5604, "MEAN_ANOMALY": 276.9994, "EPHEMERIS_TYPE": 0, "CLASSIFICATION_TYPE": "U", "NORAD_CAT_ID": 34635, "ELEMENT_SET_NO": 999, "REV_AT_EPOCH": 73180, "BSTAR": 0.0019643, "MEAN_MOTION_DOT": 0.00011369, "MEAN_MOTION_DDOT": 0}, "tle": {"line1": "1 34635U 93036XG  25344.06450779  .00011369  00000+0  19643-2 0  9992", "line2": "2 34635  74.0454  75.8846 0028788 145.5604 276.9994 14.68204254731804"}}, "geometry": {"type": "Point", "coordinates": [-135.58877700382996, 60.80521703420492]}}, {"type": "Feature", "properties": {"norad_id": 34637, "name": "COSMOS 2251 DEB", "group": "cosmos-2251-debris", "lat": 12.423674685428297, "lon": 109.20246517637194, "alt_km": 727.8101735552045, "timestamp": "2025-12-10T09:57:45.092725+00:00", "meta": {"OBJECT_NAME": "COSMOS 2251 DEB", "OBJECT_ID": "1993-036XJ", "EPOCH": "2025-12-09T18:13:09.557760", "MEAN_MOTION": 14.60049838, "ECCENTRICITY": 0.0050065, "INCLINATION": 74.0498, "RA_OF_ASC_NODE": 106.8405, "ARG_OF_PERICENTER": 178.0438, "MEAN_ANOMALY": 348.6861, "EPHEMERIS_TYPE": 0, "CLASSIFICATION_TYPE": "U", "NORAD_CAT_ID": 34637, "ELEMENT_SET_NO": 999, "REV_AT_EPOCH": 88483, "BSTAR": 0.0018, "MEAN_MOTION_DOT": 8.782e-05, "MEAN_MOTION_DDOT": 0}, "tle": {"line1": "1 34637U 93036XJ  25343.75913840  .00008782  00000+0  18000-2 0  9993", "line2": "2 34637  74.0498 106.8405 0050065 178.0438 348.6861 14.60049838884838"}}, "geometry": {"type": "Point", "coordinates": [109.20246517637194, 12.423674685428297]}}, {"type": "Feature", "properties": {"norad_id": 34641, "name": "COSMOS 2251 DEB", "group": "cosmos-2251-debris", "lat": 65.7947458842106, "lon": 126.25204651080712, "alt_km": 708.0329286683109, "timestamp": "2025-12-10T09:57:45.092740+00:00", "meta": {"OBJECT_NAME": "COSMOS 2251 DEB", "OBJECT_ID": "1993-036XN", "EPOCH": "2025-12-08T08:18:31.274784", "MEAN_MOTION": 14.51947493, "ECCENTRICITY": 0.00179207, "INCLINATION": 73.839, "RA_OF_ASC_NODE": 90.0233, "ARG_OF_PERICENTER": 6.2701, "MEAN_ANOMALY": 55.3534, "EPHEMERIS_TYPE": 0, "CLASSIFICATION_TYPE": "U", "NORAD_CAT_ID": 34641, "ELEMENT_SET_NO": 999, "REV_AT_EPOCH": 88192, "BSTAR": 0.0014885346, "MEAN_MOTION_DOT": 5.995e-05, "MEAN_MOTION_DDOT": 0}, "tle": {"line1": "1 34641U 93036XN  25342.34619531  .00005995  00000+0  14885-2 0  9992", "line2": "2 34641  73.8390  90.0233 0017920   6.2701  55.3534 14.51947493881922"}}, "geometry": {"type": "Point", "coordinates": [126.25204651080712, 65.7947458842106]}}, {"type": "Feature", "properties": {"norad_id": 34642, "name": "COSMOS 2251 DEB", "group": "cosmos-2251-debris", "lat": -57.67277265182906, "lon": -169.22028166483838, "alt_km": 867.7625077355015, "timestamp": "2025-12-10T09:57:45.092750+00:00", "meta": {"OBJECT_NAME": "COSMOS 2251 DEB", "OBJECT_ID": "1993-036XP", "EPOCH": "2025-12-10T00:24:07.917120", "MEAN_MOTION": 13.98961985, "ECCENTRICITY": 0.0207443, "INCLINATION": 74.0052, "RA_OF_ASC_NODE": 344.5178, "ARG_OF_PERICENTER": 165.03, "MEAN_ANOMALY": 228.7298, "EPHEMERIS_TYPE": 0, "CLASSIFICATION_TYPE": "U", "NORAD_CAT_ID": 34642, "ELEMENT_SET_NO": 999, "REV_AT_EPOCH": 85255, "BSTAR": 0.0011462, "MEAN_MOTION_DOT": 1.968e-05, "MEAN_MOTION_DDOT": 0}, "tle": {"line1": "1 34642U 93036XP  25344.01675830  .00001968  00000+0  11462-2 0  9997", "line2": "2 34642  74.0052 344.5178 0207443 165.0300 228.7298 13.98961985852558"}}, "geometry": {"type": "Point", "coordinates": [-169.22028166483838, -57.67277265182906]}}, {"type": "Feature", "properties": {"norad_id": 34671, "name": "COSMOS 2251 DEB", "group": "cosmos-2251-debris", "lat": 48.26482731662312, "lon": 157.512344746359, "alt_km": 674.4746844076199, "timestamp": "2025-12-10T09:57:45.092760+00:00", "meta": {"OBJECT_NAME": "COSMOS 2251 DEB", "OBJECT_ID": "1993-036XR", "EPOCH": "2025-12-09T17:26:17.672352", "MEAN_MOTION": 14.66843353, "ECCENTRICITY": 0.0011692, "INCLINATION": 74.0267, "RA_OF_ASC_NODE": 140.1121, "ARG_OF_PERICENTER": 220.0956, "MEAN_ANOMALY": 156.6146, "EPHEMERIS_TYPE": 0, "CLASSIFICATION_TYPE": "U", "NORAD_CAT_ID": 34671, "ELEMENT_SET_NO": 999, "REV_AT_EPOCH": 88253, "BSTAR": 0.0027981, "MEAN_MOTION_DOT": 0.00015648, "MEAN_MOTION_DDOT": 0}, "tle": {"line1": "1 34671U 93036XR  25343.72659343  .00015648  00000+0  27981-2 0  9990", "line2": "2 34671  74.0267 140.1121 0011692 220.0956 156.6146 14.66843353882530"}}, "geometry": {"type": "Point", "coordinates": [157.512344746359, 48.26482731662312]}}, {"type": "Feature", "properties": {"norad_id": 34672, "name": "COSMOS 2251 DEB", "group": "cosmos-2251-debris", "lat": 51.318647763061435, "lon": 108.90970266096944, "alt_km": 769.142026490571, "timestamp": "2025-12-10T09:57:45.092770+00:00", "meta": {"OBJECT_NAME": "COSMOS 2251 DEB", "OBJECT_ID": "1993-036XS", "EPOCH": "2025-12-08T07:33:35.281152", "MEAN_MOTION": 14.36398163, "ECCENTRICITY": 0.00235672, "INCLINATION": 74.0335, "RA_OF_ASC_NODE": 313.7193, "ARG_OF_PERICENTER": 26.7043, "MEAN_ANOMALY": 43.2667, "EPHEMERIS_TYPE": 0, "CLASSIFICATION_TYPE": "U", "NORAD_CAT_ID": 34672, "ELEMENT_SET_NO": 999, "REV_AT_EPOCH": 65114, "BSTAR": 0.00050497184, "MEAN_MOTION_DOT": 1.458e-05, "MEAN_MOTION_DDOT": 0}, "tle": {"line1": "1 34672U 93036XS  25342.31499168  .00001458  00000+0  50497-3 0  9995", "line2": "2 34672  74.0335 313.7193 0023567  26.7043  43.2667 14.36398163651147"}}, "geometry": {"type": "Point", "coordinates": [108.90970266096944, 51.318647763061435]}}, {"type": "Feature", "properties": {"norad_id": 34678, "name": "COSMOS 2251 DEB", "group": "cosmos-2251-debris", "lat": 0.9496488788943164, "lon": 10.191535098402865, "alt_km": 784.8953683629534, "timestamp": "2025-12-10T09:57:45.092780+00:00", "meta": {"OBJECT_NAME": "COSMOS 2251 DEB", "OBJECT_ID": "1993-036XY", "EPOCH": "2025-12-10T01:42:15.429024", "MEAN_MOTION": 14.30064327, "ECCENTRICITY": 0.0024358, "INCLINATION": 74.0378, "RA_OF_ASC_NODE": 10.545, "ARG_OF_PERICENTER": 60.5337, "MEAN_ANOMALY": 330.0436, "EPHEMERIS_TYPE": 0, "CLASSIFICATION_TYPE": "U", "NORAD_CAT_ID": 34678, "ELEMENT_SET_NO": 999, "REV_AT_EPOCH": 87341, "BSTAR": 4.2933e-05, "MEAN_MOTION_DOT": 8.6e-07, "MEAN_MOTION_DDOT": 0}, "tle": {"line1": "1 34678U 93036XY  25344.07101191  .00000086  00000+0  42933-4 0  9995", "line2": "2 34678  74.0378  10.5450 0024358  60.5337 330.0436 14.30064327873412"}}, "geometry": {"type": "Point", "coordinates": [10.191535098402865, 0.9496488788943164]}}, {"type": "Feature", "properties": {"norad_id": 34680, "name": "COSMOS 2251 DEB", "group": "cosmos-2251-debris", "lat": 26.755517540601964, "lon": 142.5899825809913, "alt_km": 694.43135107749, "timestamp": "2025-12-10T09:57:45.092790+00:00", "meta": {"OBJECT_NAME": "COSMOS 2251 DEB", "OBJECT_ID": "1993-036YA", "EPOCH": "2025-12-09T21:22:51.072960", "MEAN_MOTION": 14.60570538, "ECCENTRICITY": 0.000686, "INCLINATION": 74.043, "RA_OF_ASC_NODE": 135.2964, "ARG_OF_PERICENTER": 231.5202, "MEAN_ANOMALY": 281.1318, "EPHEMERIS_TYPE": 0, "CLASSIFICATION_TYPE": "U", "NORAD_CAT_ID": 34680, "ELEMENT_SET_NO": 999, "REV_AT_EPOCH": 88286, "BSTAR": 0.0017599, "MEAN_MOTION_DOT": 8.536e-05, "MEAN_MOTION_DDOT": 0}, "tle": {"line1": "1 34680U 93036YA  25343.89086890  .00008536  00000+0  17599-2 0  9991", "line2": "2 34680  74.0430 135.2964 0006860 231.5202 281.1318 14.60570538882861"}}, "geometry": {"type": "Point", "coordinates": [142.5899825809913, 26.755517540601964]}}, {"type": "Feature", "properties": {"norad_id": 34681, "name": "COSMOS 2251 DEB", "group": "cosmos-2251-debris", "lat": 63.080476205320664, "lon": -30.76137917552975, "alt_km": 608.6120231543518, "timestamp": "2025-12-10T09:57:45.092800+00:00", "meta": {"OBJECT_NAME": "COSMOS 2251 DEB", "OBJECT_ID": "1993-036YB", "EPOCH": "2025-12-09T20:50:41.266752", "MEAN_MOTION": 14.83101891, "ECCENTRICITY": 0.0025658, "INCLINATION": 74.0629, "RA_OF_ASC_NODE": 296.0707, "ARG_OF_PERICENTER": 353.2406, "MEAN_ANOMALY": 37.5033, "EPHEMERIS_TYPE": 0, "CLASSIFICATION_TYPE": "U", "NORAD_CAT_ID": 34681, "ELEMENT_SET_NO": 999, "REV_AT_EPOCH": 89228, "BSTAR": 0.0024676, "MEAN_MOTION_DOT": 0.00020248, "MEAN_MOTION_DDOT": 0}, "tle": {"line1": "1 34681U 93036YB  25343.86853318  .00020248  00000+0  24676-2 0  9994", "line2": "2 34681  74.0629 296.0707 0025658 353.2406  37.5033 14.83101891892288"}}, "geometry": {"type": "Point", "coordinates": [-30.76137917552975, 63.080476205320664]}}]}